{
  "type": "FeatureCollection",
  "features": [
    {
      "type": "Feature",
      "properties": {
        "norad_id": 32461,
        "name": "FENGYUN 1C DEB",
        "group": "fengyun-1c-debris",
        "lat": 19.084180170402067,
        "lon": 19.150003797950514,
        "alt_km": 835.3369128342993,
        "timestamp": "2025-12-06T05:40:09.530885+00:00",
        "meta_object_name": "FENGYUN 1C DEB",
        "meta_object_id": "1999-025DBZ",
        "meta_epoch": "2025-12-03T02:25:21.166752",
        "meta_mean_motion": 13.72796083,
        "meta_eccentricity": 0.02319021,
        "meta_inclination": 98.3345,
        "meta_ra_of_asc_node": 193.5106,
        "meta_arg_of_pericenter": 142.9947,
        "meta_mean_anomaly": 10.0781,
        "meta_ephemeris_type": 0,
        "meta_classification_type": "U",
        "meta_norad_cat_id": 32461,
        "meta_element_set_no": 999,
        "meta_rev_at_epoch": 67162,
        "meta_bstar": 0.0012933727,
        "meta_mean_motion_dot": 1.409e-05,
        "meta_mean_motion_ddot": 0,
        "tle_line1": "1 32461U 99025DBZ 25337.10093943  .00001409  00000+0  12934-2 0  9994",
        "tle_line2": "2 32461  98.3345 193.5106 0231902 142.9947  10.0781 13.72796083671623"
      },
      "geometry": {
        "type": "Point",
        "coordinates": [
          19.150003797950514,
          19.084180170402067
        ]
      }
    },
    {
      "type": "Feature",
      "properties": {
        "norad_id": 32464,
        "name": "FENGYUN 1C DEB",
        "group": "fengyun-1c-debris",
        "lat": -42.98045590627173,
        "lon": 11.893732479032181,
        "alt_km": 554.5569623011916,
        "timestamp": "2025-12-06T05:40:09.530896+00:00",
        "meta_object_name": "FENGYUN 1C DEB",
        "meta_object_id": "1999-025DCC",
        "meta_epoch": "2025-12-01T19:39:49.615200",
        "meta_mean_motion": 14.92402784,
        "meta_eccentricity": 0.01131409,
        "meta_inclination": 97.3575,
        "meta_ra_of_asc_node": 0.8492,
        "meta_arg_of_pericenter": 273.2898,
        "meta_mean_anomaly": 85.5384,
        "meta_ephemeris_type": 0,
        "meta_classification_type": "U",
        "meta_norad_cat_id": 32464,
        "meta_element_set_no": 999,
        "meta_rev_at_epoch": 60629,
        "meta_bstar": 0.001374684,
        "meta_mean_motion_dot": 0.00015906,
        "meta_mean_motion_ddot": 0,
        "tle_line1": "1 32464U 99025DCC 25335.81932425  .00015906  00000+0  13747-2 0  9990",
        "tle_line2": "2 32464  97.3575   0.8492 0113140 273.2898  85.5384 14.92402784606296"
      },
      "geometry": {
        "type": "Point",
        "coordinates": [
          11.893732479032181,
          -42.98045590627173
        ]
      }
    },
    {
      "type": "Feature",
      "properties": {
        "norad_id": 33502,
        "name": "FENGYUN 1C DEB",
        "group": "fengyun-1c-debris",
        "lat": 48.566985187859345,
        "lon": -87.5293296595724,
        "alt_km": 845.1092045678679,
        "timestamp": "2025-12-06T05:40:09.530907+00:00",
        "meta_object_name": "FENGYUN 1C DEB",
        "meta_object_id": "1999-025DCF",
        "meta_epoch": "2025-12-04T19:57:15.920064",
        "meta_mean_motion": 14.2173873,
        "meta_eccentricity": 0.00788125,
        "meta_inclination": 99.025,
        "meta_ra_of_asc_node": 281.4079,
        "meta_arg_of_pericenter": 175.9833,
        "meta_mean_anomaly": 248.1087,
        "meta_ephemeris_type": 0,
        "meta_classification_type": "U",
        "meta_norad_cat_id": 33502,
        "meta_element_set_no": 999,
        "meta_rev_at_epoch": 86843,
        "meta_bstar": 0.0053189097,
        "meta_mean_motion_dot": 0.00012042,
        "meta_mean_motion_ddot": 0,
        "tle_line1": "1 33502U 99025DCF 25338.83143426  .00012042  00000+0  53189-2 0  9996",
        "tle_line2": "2 33502  99.0250 281.4079 0078812 175.9833 248.1087 14.21738730868438"
      },
      "geometry": {
        "type": "Point",
        "coordinates": [
          -87.5293296595724,
          48.566985187859345
        ]
      }
    },
    {
      "type": "Feature",
      "properties": {
        "norad_id": 33599,
        "name": "FENGYUN 1C DEB",
        "group": "fengyun-1c-debris",
        "lat": -40.41089365085911,
        "lon": 54.51429296679668,
        "alt_km": 439.1247471985207,
        "timestamp": "2025-12-06T05:40:09.530917+00:00",
        "meta_object_name": "FENGYUN 1C DEB",
        "meta_object_id": "1999-025DCG",
        "meta_epoch": "2025-11-20T10:50:20.760288",
        "meta_mean_motion": 15.13875085,
        "meta_eccentricity": 0.01305425,
        "meta_inclination": 96.6164,
        "meta_ra_of_asc_node": 35.1071,
        "meta_arg_of_pericenter": 19.0845,
        "meta_mean_anomaly": 341.5213,
        "meta_ephemeris_type": 0,
        "meta_classification_type": "U",
        "meta_norad_cat_id": 33599,
        "meta_element_set_no": 999,
        "meta_rev_at_epoch": 65666,
        "meta_bstar": 0.0014461331,
        "meta_mean_motion_dot": 0.00032405,
        "meta_mean_motion_ddot": 0,
        "tle_line1": "1 33599U 99025DCG 25324.45162917  .00032405  00000+0  14461-2 0  9996",
        "tle_line2": "2 33599  96.6164  35.1071 0130542  19.0845 341.5213 15.13875085656663"
      },
      "geometry": {
        "type": "Point",
        "coordinates": [
          54.51429296679668,
          -40.41089365085911
        ]
      }
    },
    {
      "type": "Feature",
      "properties": {
        "norad_id": 33601,
        "name": "FENGYUN 1C DEB",
        "group": "fengyun-1c-debris",
        "lat": 50.230123695884366,
        "lon": 126.81292284914632,
        "alt_km": 899.6767074806967,
        "timestamp": "2025-12-06T05:40:09.530927+00:00",
        "meta_object_name": "FENGYUN 1C DEB",
        "meta_object_id": "1999-025DCJ",
        "meta_epoch": "2025-11-28T21:43:48.473760",
        "meta_mean_motion": 14.07801571,
        "meta_eccentricity": 0.01586414,
        "meta_inclination": 98.3138,
        "meta_ra_of_asc_node": 130.1771,
        "meta_arg_of_pericenter": 181.8859,
        "meta_mean_anomaly": 178.1734,
        "meta_ephemeris_type": 0,
        "meta_classification_type": "U",
        "meta_norad_cat_id": 33601,
        "meta_element_set_no": 999,
        "meta_rev_at_epoch": 90485,
        "meta_bstar": 0.0013995386,
        "meta_mean_motion_dot": 2.622e-05,
        "meta_mean_motion_ddot": 0,
        "tle_line1": "1 33601U 99025DCJ 25332.90542215  .00002622  00000+0  13995-2 0  9991",
        "tle_line2": "2 33601  98.3138 130.1771 0158641 181.8859 178.1734 14.07801571904853"
      },
      "geometry": {
        "type": "Point",
        "coordinates": [
          126.81292284914632,
          50.230123695884366
        ]
      }
    },
    {
      "type": "Feature",
      "properties": {
        "norad_id": 33603,
        "name": "FENGYUN 1C DEB",
        "group": "fengyun-1c-debris",
        "lat": -23.95459529142712,
        "lon": 91.34973305666553,
        "alt_km": 687.9844395937607,
        "timestamp": "2025-12-06T05:40:09.530937+00:00",
        "meta_object_name": "FENGYUN 1C DEB",
        "meta_object_id": "1999-025DCL",
        "meta_epoch": "2025-12-05T01:11:07.399680",
        "meta_mean_motion": 14.79868588,
        "meta_eccentricity": 0.0220742,
        "meta_inclination": 98.8039,
        "meta_ra_of_asc_node": 273.997,
        "meta_arg_of_pericenter": 96.7761,
        "meta_mean_anomaly": 265.8619,
        "meta_ephemeris_type": 0,
        "meta_classification_type": "U",
        "meta_norad_cat_id": 33603,
        "meta_element_set_no": 999,
        "meta_rev_at_epoch": 98746,
        "meta_bstar": 0.00035268434,
        "meta_mean_motion_dot": 3.96e-05,
        "meta_mean_motion_ddot": 0,
        "tle_line1": "1 33603U 99025DCL 25339.04939120  .00003960  00000+0  35268-3 0  9994",
        "tle_line2": "2 33603  98.8039 273.9970 0220742  96.7761 265.8619 14.79868588987469"
      },
      "geometry": {
        "type": "Point",
        "coordinates": [
          91.34973305666553,
          -23.95459529142712
        ]
      }
    },
    {
      "type": "Feature",
      "properties": {
        "norad_id": 33605,
        "name": "FENGYUN 1C DEB",
        "group": "fengyun-1c-debris",
        "lat": -9.947234830615473,
        "lon": -18.96434852502766,
        "alt_km": 880.1904064191485,
        "timestamp": "2025-12-06T05:40:09.530948+00:00",
        "meta_object_name": "FENGYUN 1C DEB",
        "meta_object_id": "1999-025DCN",
        "meta_epoch": "2025-11-29T06:37:27.772032",
        "meta_mean_motion": 14.07732345,
        "meta_eccentricity": 0.00571999,
        "meta_inclination": 98.6988,
        "meta_ra_of_asc_node": 332.793,
        "meta_arg_of_pericenter": 112.5488,
        "meta_mean_anomaly": 264.4464,
        "meta_ephemeris_type": 0,
        "meta_classification_type": "U",
        "meta_norad_cat_id": 33605,
        "meta_element_set_no": 999,
        "meta_rev_at_epoch": 59629,
        "meta_bstar": 0.00056176503,
        "meta_mean_motion_dot": 9.23e-06,
        "meta_mean_motion_ddot": 0,
        "tle_line1": "1 33605U 99025DCN 25333.27601588  .00000923  00000+0  56177-3 0  9997",
        "tle_line2": "2 33605  98.6988 332.7930 0057199 112.5488 264.4464 14.07732345596291"
      },
      "geometry": {
        "type": "Point",
        "coordinates": [
          -18.96434852502766,
          -9.947234830615473
        ]
      }
    }
  ]
}